NORAD_CAT_ID,OBJECT_NAME,OBJECT_TYPE,EPOCH,MEAN_MOTION,ECCENTRICITY,INCLINATION,RA_OF_ASC_NODE,ARG_OF_PERICENTER,MEAN_ANOMALY,BSTAR,MEAN_MOTION_DOT,MEAN_MOTION_DDOT,TLE_LINE0,TLE_LINE1,TLE_LINE2,SEMIMAJOR_AXIS,PERIOD,APOGEE,PERIGEE,DECAYED
55916.0,STARLINK-5796,PAYLOAD,2024-04-28 12:52:25,14.98317035,0.0002635,70.0018,219.4923,264.7993,95.2865,-0.00014242,-1.791e-05,0.0,0 STARLINK-5796,1 55916U 23037C   24119.53640330 -.00001791  00000-0 -14242-3 0  9998,2 55916  70.0018 219.4923 0002635 264.7993  95.2865 14.98317035 61946,6950.233,96.108,573.929,570.267,0.0
55916.0,STARLINK-5796,PAYLOAD,2024-04-28 14:28:33,14.98312667,0.000285,70.0013,219.3248,269.7566,90.3266,-8.6007e-05,-1.119e-05,0.0,0 STARLINK-5796,1 55916U 23037C   24119.60316579 -.00001119  00000-0 -86007-4 0  9994,2 55916  70.0013 219.3248 0002850 269.7566  90.3266 14.98312667 61611,6950.246,96.108,574.092,570.131,0.0
55916.0,STARLINK-5796,PAYLOAD,2024-04-28 16:04:41,14.98315807,0.0003008,70.0014,219.1564,273.0589,87.0226,-0.00013151,-1.661e-05,0.0,0 STARLINK-5796,1 55916U 23037C   24119.66992503 -.00001661  00000-0 -13151-3 0  9998,2 55916  70.0014 219.1564 0003008 273.0589  87.0226 14.98315807 61629,6950.237,96.108,574.192,570.011,0.0
55916.0,STARLINK-5796,PAYLOAD,2024-04-29 00:05:20,14.98327491,0.000318,70.0007,218.3126,266.5645,93.515,-4.9646e-05,-6.85e-06,0.0,0 STARLINK-5796,1 55916U 23037C   24120.00371501 -.00000685  00000-0 -49646-4 0  9991,2 55916  70.0007 218.3126 0003180 266.5645  93.5150 14.98327491 62011,6950.201,96.107,574.276,569.855,0.0
55916.0,STARLINK-5796,PAYLOAD,2024-04-29 12:54:24,14.98335558,0.0003087,70.0007,216.9658,266.0833,93.9973,0.00015845,1.798e-05,0.0,0 STARLINK-5796,1 55916U 23037C   24120.53778926  .00001798  00000-0  15845-3 0  9998,2 55916  70.0007 216.9658 0003087 266.0833  93.9973 14.98335558 62093,6950.176,96.107,574.186,569.895,0.0
55916.0,STARLINK-5796,PAYLOAD,2024-04-29 14:30:33,14.98337235,0.0003038,70.0017,216.7979,267.2675,92.8136,0.00028822,3.348e-05,0.0,0 STARLINK-5796,1 55916U 23037C   24120.60454996  .00003348  00000-0  28822-3 0  9996,2 55916  70.0017 216.7979 0003038 267.2675  92.8136 14.98337235 61767,6950.171,96.107,574.147,569.924,0.0
55916.0,STARLINK-5796,PAYLOAD,2024-04-29 16:06:41,14.98339715,0.0003057,70.0016,216.629,266.8782,93.2027,0.00034811,4.064e-05,0.0,0 STARLINK-5796,1 55916U 23037C   24120.67130907  .00004064  00000-0  34811-3 0  9997,2 55916  70.0016 216.6290 0003057 266.8782  93.2027 14.98339715 61776,6950.163,96.106,574.153,569.903,0.0
55916.0,STARLINK-5796,PAYLOAD,2024-04-30 12:56:25,14.98346199,0.0003102,70.0017,214.4409,268.7219,91.3585,0.00046099,5.414e-05,0.0,0 STARLINK-5796,1 55916U 23037C   24121.53918777  .00005414  00000-0  46099-3 0  9993,2 55916  70.0017 214.4409 0003102 268.7219  91.3585 14.98346199 62247,6950.143,96.106,574.164,569.852,0.0
55916.0,STARLINK-5796,PAYLOAD,2024-04-30 14:32:33,14.98345387,0.0003108,70.0017,214.2728,268.922,91.1583,0.00042107,4.937e-05,0.0,0 STARLINK-5796,1 55916U 23037C   24121.60594759  .00004937  00000-0  42107-3 0  9996,2 55916  70.0017 214.2728 0003108 268.9220  91.1583 14.98345387 61916,6950.145,96.106,574.17,569.85,0.0
55916.0,STARLINK-5796,PAYLOAD,2024-04-30 16:08:41,14.98346443,0.0003108,70.0017,214.1046,268.9711,91.1092,0.00046452,5.456e-05,0.0,0 STARLINK-5796,1 55916U 23037C   24121.67270691  .00005456  00000-0  46452-3 0  9993,2 55916  70.0017 214.1046 0003108 268.9711  91.1092 14.98346443 61923,6950.142,96.106,574.167,569.847,0.0
55916.0,STARLINK-5796,PAYLOAD,2024-05-01 12:58:26,14.98336655,0.0002985,70.0022,211.9162,271.0507,89.031,9.7381e-05,1.069e-05,0.0,0 STARLINK-5796,1 55916U 23037C   24122.54058572  .00001069  00000-0  97381-4 0  9996,2 55916  70.0022 211.9162 0002985 271.0507  89.0310 14.98336655 62398,6950.172,96.107,574.112,569.963,0.0
55916.0,STARLINK-5796,PAYLOAD,2024-05-02 13:00:27,14.98332838,0.0002804,70.0013,209.3929,265.3127,94.7712,5.2605e-05,5.35e-06,0.0,0 STARLINK-5796,1 55916U 23037C   24123.54198894  .00000535  00000-0  52605-4 0  9996,2 55916  70.0013 209.3929 0002804 265.3127  94.7712 14.98332838 62549,6950.184,96.107,573.998,570.1,0.0
55916.0,STARLINK-5796,PAYLOAD,2024-05-03 13:02:27,14.98345399,0.000291,70.0019,206.8673,268.4689,91.6137,0.00031961,3.724e-05,0.0,0 STARLINK-5796,1 55916U 23037C   24124.54337628  .00003724  00000-0  31961-3 0  9991,2 55916  70.0019 206.8673 0002910 268.4689  91.6137 14.98345399 62697,6950.145,96.106,574.033,569.988,0.0
55916.0,STARLINK-5796,PAYLOAD,2024-05-03 14:38:35,14.98346396,0.0002906,70.0019,206.699,268.5915,91.4911,0.00033778,3.941e-05,0.0,0 STARLINK-5796,1 55916U 23037C   24124.61013553  .00003941  00000-0  33778-3 0  9996,2 55916  70.0019 206.6990 0002906 268.5915  91.4911 14.98346396 62365,6950.142,96.106,574.027,569.987,0.0
55916.0,STARLINK-5796,PAYLOAD,2024-05-03 22:39:16,14.98338798,0.0003177,70.002,205.8574,267.7996,92.2799,0.00015943,1.81e-05,0.0,0 STARLINK-5796,1 55916U 23037C   24124.94393705  .00001810  00000-0  15943-3 0  9999,2 55916  70.0020 205.8574 0003177 267.7996  92.2799 14.98338798 62413,6950.166,96.106,574.239,569.823,0.0
55916.0,STARLINK-5796,PAYLOAD,2024-05-04 05:03:49,14.98317007,0.0003013,70.0016,205.1839,266.6529,93.4285,-0.00017041,-2.125e-05,0.0,0 STARLINK-5796,1 55916U 23037C   24125.21098967 -.00002125  00000-0 -17041-3 0  9995,2 55916  70.0016 205.1839 0003013 266.6529  93.4285 14.98317007 62798,6950.233,96.108,574.192,570.004,0.0
55916.0,STARLINK-5796,PAYLOAD,2024-05-05 05:05:50,14.98323194,0.0003079,70.0022,202.6592,266.3585,93.7222,0.00047501,5.578e-05,0.0,0 STARLINK-5796,1 55916U 23037C   24126.21239244  .00005578  00000-0  47501-3 0  9998,2 55916  70.0022 202.6592 0003079 266.3585  93.7222 14.98323194 62949,6950.214,96.107,574.219,569.939,0.0
55916.0,STARLINK-5796,PAYLOAD,2024-05-05 14:42:39,14.98330019,0.0003083,70.0023,201.6493,266.09,93.9907,0.0010468,0.00012419,0.0,0 STARLINK-5796,1 55916U 23037C   24126.61295587  .00012419  00000-0  10468-2 0  9997,2 55916  70.0023 201.6493 0003083 266.0900  93.9907 14.98330019 62667,6950.193,96.107,574.201,569.915,0.0
55916.0,STARLINK-5796,PAYLOAD,2024-05-06 05:07:51,14.98352135,0.0003105,70.0023,200.1342,266.3388,93.7416,0.0015277,0.00018193,0.0,0 STARLINK-5796,1 55916U 23037C   24127.21379181  .00018193  00000-0  15277-2 0  9995,2 55916  70.0023 200.1342 0003105 266.3388  93.7416 14.98352135 63096,6950.124,96.106,574.147,569.831,0.0
55916.0,STARLINK-5796,PAYLOAD,2024-05-06 14:44:39,14.98361252,0.000312,70.0022,199.1245,266.6889,93.3914,0.0013691,0.00016294,0.0,0 STARLINK-5796,1 55916U 23037C   24127.61434564  .00016294  00000-0  13691-2 0  9994,2 55916  70.0022 199.1245 0003120 266.6889  93.3914 14.98361252 62818,6950.096,96.105,574.13,569.793,0.0
55916.0,STARLINK-5796,PAYLOAD,2024-05-07 05:09:51,14.98351856,0.0002533,70.0034,197.6113,263.2878,96.7993,0.00040732,4.773e-05,0.0,0 STARLINK-5796,1 55916U 23037C   24128.21518168  .00004773  00000-0  40732-3 0  9990,2 55916  70.0034 197.6113 0002533 263.2878  96.7993 14.98351856 63247,6950.125,96.106,573.751,570.23,0.0
55916.0,STARLINK-5796,PAYLOAD,2024-05-07 13:10:32,14.98339663,0.0002976,70.002,196.7685,267.6466,92.4353,0.00012629,1.415e-05,0.0,0 STARLINK-5796,1 55916U 23037C   24128.54898298  .00001415  00000-0  12629-3 0  9995,2 55916  70.0020 196.7685 0002976 267.6466  92.4353 14.98339663 63298,6950.163,96.106,574.096,569.96,0.0
55916.0,STARLINK-5796,PAYLOAD,2024-05-07 14:46:40,14.98339634,0.0002978,70.002,196.6002,267.672,92.4099,0.00011241,1.249e-05,0.0,0 STARLINK-5796,1 55916U 23037C   24128.61574254  .00001249  00000-0  11241-3 0  9990,2 55916  70.0020 196.6002 0002978 267.6720  92.4099 14.98339634 62963,6950.163,96.106,574.098,569.958,0.0
55916.0,STARLINK-5796,PAYLOAD,2024-05-08 13:12:31,14.98351244,0.0002639,70.0013,194.2459,261.375,98.711,0.0001121,1.246e-05,0.0,0 STARLINK-5796,1 55916U 23037C   24129.55037013  .00001246  00000-0  11210-3 0  9994,2 55916  70.0013 194.2459 0002639 261.3750  98.7110 14.98351244 63441,6950.127,96.106,573.826,570.158,0.0
55916.0,STARLINK-5796,PAYLOAD,2024-05-09 05:13:53,14.98336299,0.0002433,70.0023,192.565,241.7506,118.3407,0.00012764,1.431e-05,0.0,0 STARLINK-5796,1 55916U 23037C   24130.21797465  .00001431  00000-0  12764-3 0  9994,2 55916  70.0023 192.5650 0002433 241.7506 118.3407 14.98336299 63541,6950.173,96.107,573.729,570.347,0.0
55916.0,STARLINK-5796,PAYLOAD,2024-05-09 13:14:33,14.98331605,0.0002993,70.0007,191.7203,269.4364,90.6452,4.3856e-05,4.3e-06,0.0,0 STARLINK-5796,1 55916U 23037C   24130.55177900  .00000430  00000-0  43856-4 0  9992,2 55916  70.0007 191.7203 0002993 269.4364  90.6452 14.98331605 63591,6950.188,96.107,574.133,569.973,0.0
55916.0,STARLINK-5796,PAYLOAD,2024-05-10 13:16:34,14.98338524,0.0003057,70.0002,189.1945,268.5842,91.4967,-2.2298e-05,-3.59e-06,0.0,0 STARLINK-5796,1 55916U 23037C   24131.55317570 -.00000359  00000-0 -22298-4 0  9991,2 55916  70.0002 189.1945 0003057 268.5842  91.4967 14.98338524 63747,6950.167,96.106,574.156,569.907,0.0
55916.0,STARLINK-5796,PAYLOAD,2024-05-11 13:18:32,14.98385699,0.0003181,70.0007,186.67,271.3605,88.7189,0.0010635,0.00012638,0.0,0 STARLINK-5796,1 55916U 23037C   24132.55454153  .00012638  00000-0  10635-2 0  9992,2 55916  70.0007 186.6700 0003181 271.3605  88.7189 14.98385699 63896,6950.021,96.103,574.096,569.675,0.0
55916.0,STARLINK-5796,PAYLOAD,2024-05-11 21:19:14,14.98345089,0.0003057,70.0007,185.8283,268.5661,91.5148,0.00022806,2.63e-05,0.0,0 STARLINK-5796,1 55916U 23037C   24132.88835838  .00002630  00000-0  22806-3 0  9996,2 55916  70.0007 185.8283 0003057 268.5661  91.5148 14.98345089 63947,6950.146,96.106,574.136,569.887,0.0
55916.0,STARLINK-5796,PAYLOAD,2024-05-12 05:19:55,14.98315612,0.00032,70.0007,184.9865,264.3696,95.7098,-0.00064853,-7.82e-05,0.0,0 STARLINK-5796,1 55916U 23037C   24133.22216874 -.00007820  00000-0 -64853-3 0  9994,2 55916  70.0007 184.9865 0003200 264.3696  95.7098 14.98315612 63999,6950.237,96.108,574.326,569.878,0.0
